{
"type": "FeatureCollection",
"name": "Location_files_for_assignment",
"crs": { "type": "name", "properties": { "name": "urn:ogc:def:crs:OGC:1.3:CRS84" } },
"features": [
{ "type": "Feature", "properties": { "Name": "Laxmi Acharya ", "Municipality": "Lekbeshi ", "District": "Surkhet ", "Province": "Karnali ", "Latitude": 28.4688, "Longitude": 81.8071 }, "geometry": { "type": "Point", "coordinates": [ 81.8071, 28.4688 ] } },
{ "type": "Feature", "properties": { "Name": "Rajkumar Acharya", "Municipality": "Dhulkhel", "District": "Kavrepalanchok", "Province": "Bagmati", "Latitude": 27.62172, "Longitude": 85.545535 }, "geometry": { "type": "Point", "coordinates": [ 85.545535, 27.62172 ] } },
{ "type": "Feature", "properties": { "Name": "Kanchan Adhikari", "Municipality": "Maijogmai", "District": "Illam", "Province": "Koshi", "Latitude": 26.925247, "Longitude": 87.996627 }, "geometry": { "type": "Point", "coordinates": [ 87.996627, 26.925247 ] } },
{ "type": "Feature", "properties": { "Name": "Ashish Ayer", "Municipality": "Dhangadhi ", "District": "Kailali", "Province": "Sudurpaschim", "Latitude": 28.683359, "Longitude": 80.608063 }, "geometry": { "type": "Point", "coordinates": [ 80.608063, 28.683359 ] } },
{ "type": "Feature", "properties": { "Name": "Asmita Banepali", "Municipality": "Dhulikhel", "District": "Kavrepalanchok", "Province": "Bagmati", "Latitude": 27.600693, "Longitude": 85.574875 }, "geometry": { "type": "Point", "coordinates": [ 85.574875, 27.600693 ] } },
{ "type": "Feature", "properties": { "Name": "Pragyan Baral", "Municipality": "Damak", "District": "Jhapa", "Province": "Koshi", "Latitude": 26.665894, "Longitude": 87.695726 }, "geometry": { "type": "Point", "coordinates": [ 87.695726, 26.665894 ] } },
{ "type": "Feature", "properties": { "Name": "Saditya Baral", "Municipality": "Pokhara", "District": "Kaski", "Province": "Gandaki", "Latitude": 28.218218, "Longitude": 83.9713219 }, "geometry": { "type": "Point", "coordinates": [ 83.9713219, 28.218218 ] } },
{ "type": "Feature", "properties": { "Name": "Givsan Bhattrai", "Municipality": "Itahari", "District": "Sunsari", "Province": "Koshi", "Latitude": 26.6761285, "Longitude": 87.2837681 }, "geometry": { "type": "Point", "coordinates": [ 87.2837681, 26.6761285 ] } },
{ "type": "Feature", "properties": { "Name": "Madhav Bhattarai", "Municipality": "Sainamaina ", "District": "Rupandehi ", "Province": "Lumbini ", "Latitude": 27.68908, "Longitude": 83.326453 }, "geometry": { "type": "Point", "coordinates": [ 83.326453, 27.68908 ] } },
{ "type": "Feature", "properties": { "Name": "Prabhat Bhusal", "Municipality": "KMC", "District": "Kathmandu", "Province": "Bagmati", "Latitude": 27.7277628, "Longitude": 85.3348676 }, "geometry": { "type": "Point", "coordinates": [ 85.3348676, 27.7277628 ] } },
{ "type": "Feature", "properties": { "Name": "Kasheb Bista", "Municipality": "panchadewal binayak ", "District": "Achham", "Province": "Sudurpaschim", "Latitude": 29.1141, "Longitude": 81.4562 }, "geometry": { "type": "Point", "coordinates": [ 81.4562, 29.1141 ] } },
{ "type": "Feature", "properties": { "Name": "Bibhuti Budhathoki", "Municipality": "Damak", "District": "Jhapa", "Province": "Koshi", "Latitude": 26.652889, "Longitude": 87.688815 }, "geometry": { "type": "Point", "coordinates": [ 87.688815, 26.652889 ] } },
{ "type": "Feature", "properties": { "Name": "Santosh Budhathoki", "Municipality": "musikot", "District": "rukum west", "Province": "Karnali", "Latitude": 28.63, "Longitude": 82.49 }, "geometry": { "type": "Point", "coordinates": [ 82.49, 28.63 ] } },
{ "type": "Feature", "properties": { "Name": "Abhinav Chand", "Municipality": "musikot", "District": "rukum west", "Province": "Karnali", "Latitude": 28.63, "Longitude": 82.49 }, "geometry": { "type": "Point", "coordinates": [ 82.49, 28.63 ] } },
{ "type": "Feature", "properties": { "Name": "Shrija Dhakal", "Municipality": "Butwal", "District": "Rupandehi", "Province": "Lumbini", "Latitude": 27.686386, "Longitude": 83.432426 }, "geometry": { "type": "Point", "coordinates": [ 83.432426, 27.686386 ] } },
{ "type": "Feature", "properties": { "Name": "Ishwor Pd. Dhital", "Municipality": "ThakurBaba", "District": "Bardiya", "Province": "Lumbini", "Latitude": 28.4501, "Longitude": 81.3248 }, "geometry": { "type": "Point", "coordinates": [ 81.3248, 28.4501 ] } },
{ "type": "Feature", "properties": { "Name": "Salina Gurung", "Municipality": "Sandakpur", "District": "ilam", "Province": "koshi", "Latitude": 27.01287, "Longitude": 87.997793 }, "geometry": { "type": "Point", "coordinates": [ 87.997793, 27.01287 ] } },
{ "type": "Feature", "properties": { "Name": "Krishna Gyawali", "Municipality": "kapivastu", "District": "kapilvastu", "Province": "lumbini", "Latitude": 27.5518, "Longitude": 83.0469 }, "geometry": { "type": "Point", "coordinates": [ 83.0469, 27.5518 ] } },
{ "type": "Feature", "properties": { "Name": "Harish Hamal ", "Municipality": "Bedkot", "District": "Kanchanpur ", "Province": "Sudurpaschim", "Latitude": 28.9514, "Longitude": 80.2434 }, "geometry": { "type": "Point", "coordinates": [ 80.2434, 28.9514 ] } },
{ "type": "Feature", "properties": { "Name": "Ayush Joshi", "Municipality": "bhemdatt", "District": "kanchanpur", "Province": "sudurpaschim", "Latitude": 28.8372, "Longitude": 80.321312 }, "geometry": { "type": "Point", "coordinates": [ 80.321312, 28.8372 ] } },
{ "type": "Feature", "properties": { "Name": "Dipendra Joshi", "Municipality": "Dhangadhi", "District": "Kailali ", "Province": "Sudurpaschim", "Latitude": 28.683359, "Longitude": 80.608063 }, "geometry": { "type": "Point", "coordinates": [ 80.608063, 28.683359 ] } },
{ "type": "Feature", "properties": { "Name": "Pragya Joshi", "Municipality": "Dhangadhi ", "District": "Kailali ", "Province": "Sudurpaschim", "Latitude": 28.683359, "Longitude": 80.608063 }, "geometry": { "type": "Point", "coordinates": [ 80.608063, 28.683359 ] } },
{ "type": "Feature", "properties": { "Name": "Mansun Khadka", "Municipality": "Suryabinyak ", "District": "Bhaktapur ", "Province": "Bagmati", "Latitude": 27.652567, "Longitude": 85.460427 }, "geometry": { "type": "Point", "coordinates": [ 85.460427, 27.652567 ] } },
{ "type": "Feature", "properties": { "Name": "Shisir Kharel", "Municipality": "Birendranagar", "District": "Surkhet", "Province": "Karnali", "Latitude": 28.597609, "Longitude": 81.63935 }, "geometry": { "type": "Point", "coordinates": [ 81.63935, 28.597609 ] } },
{ "type": "Feature", "properties": { "Name": "Prajina Khatiwada", "Municipality": "Kathmandu Metropolitan City", "District": "Kathmandu", "Province": "Bagmati", "Latitude": 27.7103, "Longitude": 85.3222 }, "geometry": { "type": "Point", "coordinates": [ 85.3222, 27.7103 ] } },
{ "type": "Feature", "properties": { "Name": "Rishav Khatiwada", "Municipality": "Biratnagar", "District": "Morang", "Province": "Koshi", "Latitude": 26.460719, "Longitude": 87.293874 }, "geometry": { "type": "Point", "coordinates": [ 87.293874, 26.460719 ] } },
{ "type": "Feature", "properties": { "Name": "Anil Gharti Magar", "Municipality": "Birendranagar", "District": "Surkhet", "Province": "Karnali", "Latitude": 28.5175, "Longitude": 81.7787 }, "geometry": { "type": "Point", "coordinates": [ 81.7787, 28.5175 ] } },
{ "type": "Feature", "properties": { "Name": "Nalina Maharjan", "Municipality": "Baniyatar ", "District": "Kathmandu ", "Province": "Bagmati ", "Latitude": 27.7471, "Longitude": 85.3174 }, "geometry": { "type": "Point", "coordinates": [ 85.3174, 27.7471 ] } },
{ "type": "Feature", "properties": { "Name": "Alok Mahato", "Municipality": "Barahathawa", "District": "Sarlahi", "Province": "Madhesh", "Latitude": 26.9816, "Longitude": 85.4592 }, "geometry": { "type": "Point", "coordinates": [ 85.4592, 26.9816 ] } },
{ "type": "Feature", "properties": { "Name": "Kamlesh Mahato", "Municipality": "Dhanushadham", "District": "Dhanusha", "Province": "Madhesh", "Latitude": 26.882195, "Longitude": 86.019274 }, "geometry": { "type": "Point", "coordinates": [ 86.019274, 26.882195 ] } },
{ "type": "Feature", "properties": { "Name": "Aman Manandhar", "Municipality": "Panauti 5, ", "District": "Kavre", "Province": "Bagmati", "Latitude": 27.609037, "Longitude": 85.536011 }, "geometry": { "type": "Point", "coordinates": [ 85.536011, 27.609037 ] } },
{ "type": "Feature", "properties": { "Name": "Sneha Manandhar", "Municipality": "Dhulikhel-5,Shreekhandapur", "District": "Kavre", "Province": "Bagmati", "Latitude": 27.6144, "Longitude": 85.533 }, "geometry": { "type": "Point", "coordinates": [ 85.533, 27.6144 ] } },
{ "type": "Feature", "properties": { "Name": "Saurav Nepal", "Municipality": "Padajungi", "District": "Jhapa", "Province": "Koshi", "Latitude": 26.6371595, "Longitude": 87.7200067 }, "geometry": { "type": "Point", "coordinates": [ 87.7200067, 26.6371595 ] } },
{ "type": "Feature", "properties": { "Name": "Niruta Neupane", "Municipality": "Shuklagandaki", "District": "Tanahun", "Province": "Gandaki", "Latitude": 28.03275, "Longitude": 84.08501 }, "geometry": { "type": "Point", "coordinates": [ 84.08501, 28.03275 ] } },
{ "type": "Feature", "properties": { "Name": "Pusp Raj Ojha", "Municipality": "Dhangadhi", "District": "Kailali ", "Province": "Sudurpaschim", "Latitude": 28.683359, "Longitude": 80.608063 }, "geometry": { "type": "Point", "coordinates": [ 80.608063, 28.683359 ] } },
{ "type": "Feature", "properties": { "Name": "Gaurav Pandey", "Municipality": "Tilottama", "District": "Rupandehi", "Province": "Lumbini", "Latitude": 27.6195894, "Longitude": 83.4880231 }, "geometry": { "type": "Point", "coordinates": [ 83.4880231, 27.6195894 ] } },
{ "type": "Feature", "properties": { "Name": "Kartabya Paudel", "Municipality": "Hetauda", "District": "Makwanpur", "Province": "Bagmati", "Latitude": 27.424008, "Longitude": 85.034972 }, "geometry": { "type": "Point", "coordinates": [ 85.034972, 27.424008 ] } },
{ "type": "Feature", "properties": { "Name": "Nabin Poudel", "Municipality": "Madhyapur Thimi", "District": "Bhaktapur", "Province": "Bagmati", "Latitude": 27.675008, "Longitude": 85.380966 }, "geometry": { "type": "Point", "coordinates": [ 85.380966, 27.675008 ] } },
{ "type": "Feature", "properties": { "Name": "Sudipta Poudel", "Municipality": "Beni", "District": "Myagdi", "Province": "Gandaki", "Latitude": 28.6029, "Longitude": 83.3362 }, "geometry": { "type": "Point", "coordinates": [ 83.3362, 28.6029 ] } },
{ "type": "Feature", "properties": { "Name": "Ishan Regmi", "Municipality": "Tulsipur", "District": "Dang", "Province": "lumbini", "Latitude": 28.1545, "Longitude": 82.3235 }, "geometry": { "type": "Point", "coordinates": [ 82.3235, 28.1545 ] } },
{ "type": "Feature", "properties": { "Name": "Nabin Kumar Sah", "Municipality": "Ishworpur-14", "District": "Sarlahi", "Province": "Madhesh", "Latitude": 26.965957, "Longitude": 85.70891 }, "geometry": { "type": "Point", "coordinates": [ 85.70891, 26.965957 ] } },
{ "type": "Feature", "properties": { "Name": "Ritesh Sah", "Municipality": "Barahathawa", "District": "Sarlahi", "Province": "Madesh", "Latitude": 27.0124, "Longitude": 87.24 }, "geometry": { "type": "Point", "coordinates": [ 87.24, 27.0124 ] } },
{ "type": "Feature", "properties": { "Name": "Namrata Shrestha", "Municipality": "Banepa", "District": "Kavre", "Province": "Bagmati", "Latitude": 27.6584, "Longitude": 85.52 }, "geometry": { "type": "Point", "coordinates": [ 85.52, 27.6584 ] } },
{ "type": "Feature", "properties": { "Name": "Rijan Shrestha", "Municipality": "Dhulikhel-5", "District": "Kavre", "Province": "Bagmati", "Latitude": 27.61308, "Longitude": 85.53511 }, "geometry": { "type": "Point", "coordinates": [ 85.53511, 27.61308 ] } },
{ "type": "Feature", "properties": { "Name": "Jenish Silwal", "Municipality": "Namobuddha-4", "District": "Kavre", "Province": "Bagmati", "Latitude": 27.560664, "Longitude": 85.649438 }, "geometry": { "type": "Point", "coordinates": [ 85.649438, 27.560664 ] } },
{ "type": "Feature", "properties": { "Name": "Sagar Singh", "Municipality": "Mithila", "District": "Dhanusha", "Province": "Madhesh", "Latitude": 26.9509, "Longitude": 85.9509 }, "geometry": { "type": "Point", "coordinates": [ 85.9509, 26.9509 ] } },
{ "type": "Feature", "properties": { "Name": "Sumita Tamang", "Municipality": "Dhulikhel", "District": "Kavre", "Province": "Bagmati", "Latitude": 27.623705, "Longitude": 85.539406 }, "geometry": { "type": "Point", "coordinates": [ 85.539406, 27.623705 ] } },
{ "type": "Feature", "properties": { "Name": "Pratima Thapa", "Municipality": "Buddhabhumi", "District": "Kapilvastu", "Province": "Lumbini", "Latitude": 27.3941, "Longitude": 83.2927 }, "geometry": { "type": "Point", "coordinates": [ 83.2927, 27.3941 ] } },
{ "type": "Feature", "properties": { "Name": "Romika Thapa", "Municipality": "Dhulikhel-04", "District": "Kavre", "Province": "Bagmati", "Latitude": 27.6221, "Longitude": 85.54281 }, "geometry": { "type": "Point", "coordinates": [ 85.54281, 27.6221 ] } },
{ "type": "Feature", "properties": { "Name": "Deepak Tharu", "Municipality": "Geruwa-3", "District": "Bardiya", "Province": "lumbini", "Latitude": 28.3102, "Longitude": 81.4279 }, "geometry": { "type": "Point", "coordinates": [ 81.4279, 28.3102 ] } },
{ "type": "Feature", "properties": { "Name": "Anup raj Timalsina", "Municipality": "Banepa", "District": "Kavre", "Province": "Bagmati", "Latitude": 27.6290226, "Longitude": 85.5245411 }, "geometry": { "type": "Point", "coordinates": [ 85.5245411, 27.6290226 ] } },
{ "type": "Feature", "properties": { "Name": "Isha Yadav", "Municipality": "Mahalaxmi", "District": "Lalitpur", "Province": "Bagmati", "Latitude": 27.6463, "Longitude": 85.371 }, "geometry": { "type": "Point", "coordinates": [ 85.371, 27.6463 ] } },
{ "type": "Feature", "properties": { "Name": "Shivnandan Ray Yadav", "Municipality": "Dewahi-Gonahi", "District": "Rautahat", "Province": "Madhesh", "Latitude": 26.9398, "Longitude": 85.2383 }, "geometry": { "type": "Point", "coordinates": [ 85.2383, 26.9398 ] } },
{ "type": "Feature", "properties": { "Name": "Ashim Gautam", "Municipality": "Dharan", "District": "Sunsari", "Province": "Koshi", "Latitude": 26.81436, "Longitude": 87.27972 }, "geometry": { "type": "Point", "coordinates": [ 87.27972, 26.81436 ] } },
{ "type": "Feature", "properties": { "Name": "Ayushma Adhikari", "Municipality": "Pokhara", "District": "Kaski", "Province": "Gandaki", "Latitude": 28.224802, "Longitude": 83.9739472 }, "geometry": { "type": "Point", "coordinates": [ 83.9739472, 28.224802 ] } },
{ "type": "Feature", "properties": { "Name": "Nista Shrestha", "Municipality": "Banepa", "District": "Kavre", "Province": "Bagmati", "Latitude": 27.3926, "Longitude": 85.3113 }, "geometry": { "type": "Point", "coordinates": [ 85.3113, 27.3926 ] } },
{ "type": "Feature", "properties": { "Name": "Nikita Shrestha", "Municipality": "Banepa", "District": "Kavre", "Province": "Bagmati", "Latitude": 27.63071, "Longitude": 85.51833 }, "geometry": { "type": "Point", "coordinates": [ 85.51833, 27.63071 ] } },
{ "type": "Feature", "properties": { "Name": "Urmila Subedi", "Municipality": "Ramechhap ", "District": "Ramechhap ", "Province": "Bagmati ", "Latitude": 27.4469, "Longitude": 86.053 }, "geometry": { "type": "Point", "coordinates": [ 86.053, 27.4469 ] } }
]
}
